0 IRIDIUM 175
1 43928U 19002G   24122.96201357  .00000623  00000-0  94836-4 0  9997
2 43928  86.1466 293.7709 0002355  88.8029 271.3457 14.72246246285031
0 IRIDIUM 172
1 43927U 19002F   24122.79627719  .00000043  00000-0  83621-5 0  9998
2 43927  86.3940 318.0539 0002133  91.9074 268.2366 14.34215786277689
0 IRIDIUM 169
1 43926U 19002E   24122.87073196  .00000254  00000-0  76576-4 0  9994
2 43926  86.4250 349.6308 0003751  56.4446 303.7110 14.38604396278612
0 IRIDIUM 173
1 43925U 19002D   24122.80261795  .00000064  00000-0  15634-4 0  9997
2 43925  86.3939 318.0456 0002186  90.3038 269.8408 14.34216172277677
0 IRIDIUM 176
1 43923U 19002B   24122.83187533  .00000531  00000-0  80323-4 0  9991
2 43923  86.6068 318.0824 0002420  93.9838 266.1656 14.72236550285025
0 IRIDIUM 180
1 43922U 19002A   24122.82164890  .00000105  00000-0  30477-4 0  9992
2 43922  86.3940 318.0615 0002235  90.1645 269.9807 14.34212809277712
0 IRIDIUM 159
1 43578U 18061K   24123.17100283  .00000064  00000-0  15745-4 0  9993
2 43578  86.4014  21.0105 0002303  90.7540 269.3919 14.34217106302153
